{
  "norad_id": 66487,
  "name": "STARLINK-34733",
  "history": [
    {
      "epoch": "2026-03-28T17:20:44.659968Z",
      "apogee_km": 483.29161357043904,
      "perigee_km": 482.2213141900729,
      "latitude_deg": -1.4647845028620937e-05,
      "longitude_deg": 156.5507011380837,
      "height_km": 482.78879778433196,
      "semi_major_axis_km": 6860.893463880256,
      "eccentricity": 7.8e-05,
      "inclination_deg": 42.9988,
      "raan_deg": 242.8759,
      "arg_perigee_deg": 241.3676,
      "mean_anomaly_deg": 118.7097,
      "mean_motion_rev_day": 15.27677733
    },
    {
      "epoch": "2026-03-29T02:45:40.972320Z",
      "apogee_km": 483.92231209768033,
      "perigee_km": 481.9998324178332,
      "latitude_deg": -1.262277841575859e-05,
      "longitude_deg": 12.712681758472716,
      "height_km": 482.62228499501055,
      "semi_major_axis_km": 6861.098072257756,
      "eccentricity": 0.0001401,
      "inclination_deg": 42.9989,
      "raan_deg": 240.6592,
      "arg_perigee_deg": 276.8936,
      "mean_anomaly_deg": 83.1756,
      "mean_motion_rev_day": 15.27609397
    },
    {
      "epoch": "2026-03-30T02:18:03.232800Z",
      "apogee_km": 483.7685843393929,
      "perigee_km": 482.396340446915,
      "latitude_deg": 4.241814092387308e-06,
      "longitude_deg": 13.114214700941119,
      "height_km": 482.7705423765659,
      "semi_major_axis_km": 6861.219462393154,
      "eccentricity": 0.0001,
      "inclination_deg": 43.0002,
      "raan_deg": 235.1202,
      "arg_perigee_deg": 277.3948,
      "mean_anomaly_deg": 82.679,
      "mean_motion_rev_day": 15.27568857
    }
  ]
}